QIANFAN-60              
1 62790U 25016F   25331.30061676  .00000077  00000+0  10019-3 0  9998
2 62790  88.9748 104.6715 0016316  33.8551 326.3638 13.50978427 45147
QIANFAN-61              
1 62791U 25016G   25331.25929936  .00000139  00000+0  19604-3 0  9993
2 62791  88.9815 104.8281 0015256  33.6947 326.5171 13.50975440 45159
QIANFAN-62              
1 62792U 25016H   25331.26342883  .00000130  00000+0  18199-3 0  9994
2 62792  88.9761 104.7045 0016639  33.5374 326.6827 13.50985378 45145
QIANFAN-63              
1 62793U 25016J   25331.28816542  .00000144  00000+0  20404-3 0  9992
2 62793  88.9768 104.6524 0016823  38.5750 321.6600 13.50978523 45184
QIANFAN-64              
1 62794U 25016K   25331.25517565  .00000152  00000+0  21598-3 0  9997
2 62794  88.9755 104.6320 0014600  32.6650 327.5401 13.50980400 45170
QIANFAN-65              
1 62795U 25016L   25331.32518252  .00000151  00000+0  21580-3 0  9990
2 62795  88.9751 104.6513 0014474  34.2348 325.9734 13.50979394 45162
QIANFAN-66              
1 62796U 25016M   25331.27988984  .00000148  00000+0  21012-3 0  9994
2 62796  88.9771 104.6232 0015455  29.6230 330.5794 13.50983454 45206
QIANFAN-67              
1 62797U 25016N   25331.28411896  .00000140  00000+0  19877-3 0  9997
2 62797  88.9761 104.6498 0015615  36.2679 323.9528 13.50976279 45173
QIANFAN-68              
1 62798U 25016P   25331.27584077  .00000137  00000+0  19289-3 0  9992
2 62798  88.9765 104.6953 0015620  34.5672 325.6492 13.50978607 45158
QIANFAN-69              
1 62799U 25016Q   25331.29236909  .00000149  00000+0  21202-3 0  9994
2 62799  88.9743 104.5663 0016400  35.3117 324.9117 13.50981619 45199
QIANFAN-70              
1 62800U 25016R   25331.30868697  .00000141  00000+0  19969-3 0  9993
2 62800  88.9764 104.6999 0015744  26.0640 334.1300 13.50972232 45150
QIANFAN-71              
1 62801U 25016S   25331.30460843  .00000144  00000+0  20386-3 0  9993
2 62801  88.9758 104.6807 0016417  38.6562 321.5761 13.50979557 45150
QIANFAN-72              
1 62802U 25016T   25331.32108513  .00000138  00000+0  19546-3 0  9998
2 62802  88.9748 104.6939 0019846  44.6449 315.6296 13.50979446 45149
QIANFAN-73              
1 63159U 25046A   25331.27397426  .00000053  00000+0  63464-4 0  9999
2 63159  88.9752 321.6250 0015341 161.7074 198.4632 13.50974227 45321
QIANFAN-74              
1 63160U 25046B   25331.25740988  .00000063  00000+0  78343-4 0  9997
2 63160  88.9753 321.5153 0001997  84.0671 276.0708 13.50976382 45384
QIANFAN-75              
1 63161U 25046C   25331.24470830  .00000114  00000+0  15727-3 0  9996
2 63161  88.9754 321.7500 0016351 165.2840 194.8791 13.50990112 45256
QIANFAN-76              
1 63162U 25046D   25331.24115735 -.00000100  00000+0 -17371-3 0  9991
2 63162  88.9747 321.7313 0013889 165.0166 195.1400 13.50964390 45264
QIANFAN-77              
1 63163U 25046E   25331.27591303  .00000172  00000+0  11538-3 0  9990
2 63163  88.9755 319.8612 0016458 124.0756 236.1985 13.96077597 46291
QIANFAN-78              
1 63164U 25046F   25331.20811259  .00000012  00000+0  39616-6 0  9992
2 63164  88.9752 321.5988 0015195 167.7402 192.4122 13.50974648 45338
QIANFAN-79              
1 63165U 25046G   25331.23679234  .00000050  00000+0  58095-4 0  9993
2 63165  88.9756 321.7027 0014943 165.8042 194.3533 13.50975797 45285
QIANFAN-80              
1 63166U 25046H   25331.25328216  .00000089  00000+0  11919-3 0  9992
2 63166  88.9754 321.4082 0013788 169.5721 190.5719 13.50980467 45445
QIANFAN-81              
1 63167U 25046J   25331.23197066  .00000125  00000+0  17521-3 0  9994
2 63167  88.9754 321.4784 0015162 158.7120 201.4665 13.50997679 45395
QIANFAN-82              
1 63168U 25046K   25331.04352419  .00000088  00000+0  11776-3 0  9993
2 63168  88.9753 321.5418 0013063 166.0257 194.1258 13.50977167 45353
QIANFAN-83              
1 63169U 25046L   25331.27078522  .00000067  00000+0  70645-4 0  9997
2 63169  88.9754 321.3249 0014804 152.4509 207.7436 13.61970177 45498
QIANFAN-84              
1 63170U 25046M   25331.21959191 -.00000024  00000+0 -55593-4 0  9993
2 63170  88.9748 321.6564 0016120 163.6534 196.5140 13.50985435 45309
QIANFAN-85              
1 63171U 25046N   25331.21622230  .00000096  00000+0  13030-3 0  9991
2 63171  88.9753 321.5284 0013447 164.6633 195.4928 13.50982243 45377
QIANFAN-86              
1 63172U 25046P   25331.22455387  .00000113  00000+0  15665-3 0  9996
2 63172  88.9755 321.3893 0011225 167.3312 192.8124 13.50979032 45450
QIANFAN-87              
1 63173U 25046Q   25331.26992817  .00000050  00000+0  58766-4 0  9995
2 63173  88.9751 321.4970 0012022 162.9094 197.2465 13.50971229 45398
QIANFAN-88              
1 63174U 25046R   25331.28632506  .00000079  00000+0  10286-3 0  9999
2 63174  88.9754 321.4494 0012165 170.9397 189.1975 13.50976545 45422
QIANFAN-89              
1 63175U 25046S   25331.02688109  .00000077  00000+0  10044-3 0  9992
2 63175  88.9754 321.6653 0016772 164.7582 195.4078 13.50979354 45286
QIANFAN-90              
1 63176U 25046T   25331.20377442  .00000013  00000+0  16068-5 0  9992
2 63176  88.9754 321.6194 0013791 161.0311 199.1357 13.50974582 45329
QIANFAN-91              
1 66033U 25233A   25331.00807957  .00000491  00000+0  29403-3 0  9997
2 66033  88.9962  63.8730 0019059  85.4007 274.9351 14.05350326  5787
QIANFAN-92              
1 66034U 25233B   25331.01140469  .00000379  00000+0  22589-3 0  9990
2 66034  88.9971  63.8750 0017342  86.3633 273.9531 14.05170618  5781
QIANFAN-93              
1 66035U 25233C   25331.07449365  .00000153  00000+0  87224-4 0  9992
2 66035  88.9964  63.8647 0017711  86.5526 273.7681 14.04503462  5793
QIANFAN-94              
1 66036U 25233D   25331.00681833  .00000339  00000+0  19872-3 0  9993
2 66036  88.9964  63.8736 0016816  87.2481 273.0626 14.05923644  5786
QIANFAN-95              
1 66037U 25233E   25330.96588323  .00000755  00000+0  31047-3 0  9998
2 66037  88.9966  63.8482 0016165  89.6247 270.6799 14.25961547  5791
QIANFAN-96              
1 66038U 25233F   25330.94735810  .00000366  00000+0  22213-3 0  9995
2 66038  88.9965  63.8823 0018361  88.7358 271.5927 14.04088221  5770
QIANFAN-97              
1 66039U 25233G   25331.08090311  .00000341  00000+0  20503-3 0  9995
2 66039  88.9964  63.8655 0017629  89.1276 271.1926 14.04407877  5792
QIANFAN-98              
1 66040U 25233H   25331.05717119  .00000558  00000+0  27069-3 0  9990
2 66040  88.9964  63.8434 0016715  87.9901 272.3201 14.16937048  5807
QIANFAN-99              
1 66041U 25233J   25330.79397703  .00000362  00000+0  21855-3 0  9994
2 66041  88.9943  63.8969 0017405  90.1662 270.1514 14.04448073  5754
QIANFAN-100             
1 66042U 25233K   25330.98701667  .00000539  00000+0  26545-3 0  9991
2 66042  88.9967  63.8509 0017062  91.5730 268.7413 14.16130962  5794
QIANFAN-101             
1 66043U 25233L   25331.23586091  .00000359  00000+0  14234-3 0  9995
2 66043  88.9966  63.8147 0016965  87.3171 272.9965 14.26661814  5835
QIANFAN-102             
1 66044U 25233M   25330.91774187  .00000442  00000+0  25628-3 0  9997
2 66044  88.9964  63.8783 0017540  89.4600 270.8592 14.06938320  5773
QIANFAN-103             
1 66045U 25233N   25330.72778104  .00000277  00000+0  16790-3 0  9996
2 66045  88.9962  63.9074 0018414  88.4392 271.8898 14.03499343  5745
QIANFAN-104             
1 66046U 25233P   25330.98872779  .00000516  00000+0  30007-3 0  9991
2 66046  88.9965  63.8707 0017325  90.8805 269.4363 14.07063756  5780
QIANFAN-105             
1 66047U 25233Q   25330.99058492  .00000235  00000+0  13030-3 0  9996
2 66047  88.9966  63.8714 0017494  87.0094 273.3091 14.07724977  5786
QIANFAN-106             
1 66048U 25233R   25331.00462099  .00000161  00000+0  92018-4 0  9994
2 66048  88.9962  63.8725 0018024  87.3574 272.9671 14.04569700  5788
QIANFAN-107             
1 66049U 25233S   25330.99024491  .00000390  00000+0  22805-3 0  9992
2 66049  88.9967  63.8710 0018105  87.4795 272.8460 14.06314440  5780
QIANFAN-108             
1 66050U 25233T   25330.99680617  .00000282  00000+0  16332-3 0  9990
2 66050  88.9964  63.8718 0017250  88.7028 271.6130 14.05964499  5785
